[{"OBJECT_NAME":"QIANFAN-21","OBJECT_ID":"2024-185C","EPOCH":"2026-03-09T23:11:03.920640","MEAN_MOTION":14.22734833,"ECCENTRICITY":0.00130039,"INCLINATION":88.9681,"RA_OF_ASC_NODE":66.7409,"ARG_OF_PERICENTER":81.1946,"MEAN_ANOMALY":279.0717,"EPHEMERIS_TYPE":0,"CLASSIFICATION_TYPE":"U","NORAD_CAT_ID":61554,"ELEMENT_SET_NO":999,"REV_AT_EPOCH":8237,"BSTAR":0.00034568137,"MEAN_MOTION_DOT":7.89e-6,"MEAN_MOTION_DDOT":0},{"OBJECT_NAME":"THORAD AGENA D DEB","OBJECT_ID":"1970-025MX","EPOCH":"2026-03-09T22:17:37.603680","MEAN_MOTION":14.21263035,"ECCENTRICITY":0.00130403,"INCLINATION":99.887,"RA_OF_ASC_NODE":241.9485,"ARG_OF_PERICENTER":290.6721,"MEAN_ANOMALY":69.3054,"EPHEMERIS_TYPE":0,"CLASSIFICATION_TYPE":"U","NORAD_CAT_ID":6157,"ELEMENT_SET_NO":999,"REV_AT_EPOCH":83182,"BSTAR":0.0019817486,"MEAN_MOTION_DOT":4.27e-5,"MEAN_MOTION_DDOT":0}]
